STARLINK-32802          
1 62738U 25014D   26068.24670750  .00035269  00000+0  12851-2 0  9994
2 62738  43.0003 156.5437 0001211 247.8832 112.1891 15.27580243 63197
TEVEL2-8                
1 63239U 25052AF  26068.66815442  .00019130  00000+0  69304-3 0  9993
2 63239  97.4055 324.2923 0008031 124.9191 235.2804 15.28392908 54807
